[{"OBJECT_NAME":"STARLINK-30162","OBJECT_ID":"2023-105S","EPOCH":"2026-03-09T22:00:01.999584","MEAN_MOTION":15.15680844,"ECCENTRICITY":0.00014722,"INCLINATION":43.0007,"RA_OF_ASC_NODE":246.8903,"ARG_OF_PERICENTER":274.6501,"MEAN_ANOMALY":98.8321,"EPHEMERIS_TYPE":0,"CLASSIFICATION_TYPE":"U","NORAD_CAT_ID":57446,"ELEMENT_SET_NO":999,"REV_AT_EPOCH":578,"BSTAR":0.034975087,"MEAN_MOTION_DOT":0.00729589,"MEAN_MOTION_DDOT":0},{"OBJECT_NAME":"SUPERVIEW NEO-2 04","OBJECT_ID":"2024-218C","EPOCH":"2026-03-09T13:29:09.194208","MEAN_MOTION":15.1971885,"ECCENTRICITY":0.0001369,"INCLINATION":97.4396,"RA_OF_ASC_NODE":77.3157,"ARG_OF_PERICENTER":109.3587,"MEAN_ANOMALY":250.7796,"EPHEMERIS_TYPE":0,"CLASSIFICATION_TYPE":"U","NORAD_CAT_ID":62080,"ELEMENT_SET_NO":999,"REV_AT_EPOCH":7131,"BSTAR":0.00019862,"MEAN_MOTION_DOT":4.175e-5,"MEAN_MOTION_DDOT":0}]
